{
    "links": {
        "self": "http://www.neowsapp.com/rest/v1/neo/3836851?api_key=iIulBulltgU6a56xZRHN4H3l9WmuAYTsLGpBGhQ2"
    },
    "id": "3836851",
    "neo_reference_id": "3836851",
    "name": "(2018 XN2)",
    "designation": "2018 XN2",
    "nasa_jpl_url": "http://ssd.jpl.nasa.gov/sbdb.cgi?sstr=3836851",
    "absolute_magnitude_h": 24.9,
    "estimated_diameter": {
        "kilometers": {
            "estimated_diameter_min": 0.0278326768,
            "estimated_diameter_max": 0.0622357573
        },
        "meters": {
            "estimated_diameter_min": 27.8326768072,
            "estimated_diameter_max": 62.2357573367
        },
        "miles": {
            "estimated_diameter_min": 0.0172944182,
            "estimated_diameter_max": 0.0386714948
        },
        "feet": {
            "estimated_diameter_min": 91.3145593761,
            "estimated_diameter_max": 204.1855621004
        }
    },
    "is_potentially_hazardous_asteroid": false,
    "close_approach_data": [
        {
            "close_approach_date": "2018-11-27",
            "close_approach_date_full": "2018-Nov-27 06:56",
            "epoch_date_close_approach": 1543301760000,
            "relative_velocity": {
                "kilometers_per_second": "9.1286237916",
                "kilometers_per_hour": "32863.0456496668",
                "miles_per_hour": "20419.8185593721"
            },
            "miss_distance": {
                "astronomical": "0.06184013",
                "lunar": "24.05581057",
                "kilometers": "9251151.7285231",
                "miles": "5748399.12729478"
            },
            "orbiting_body": "Earth"
        }
    ],
    "orbital_data": {
        "orbit_id": "1",
        "orbit_determination_date": "2018-12-12 08:12:07",
        "first_observation_date": "2018-12-10",
        "last_observation_date": "2018-12-12",
        "data_arc_in_days": 2,
        "observations_used": 27,
        "orbit_uncertainty": "8",
        "minimum_orbit_intersection": ".00350192",
        "jupiter_tisserand_invariant": "4.227",
        "epoch_osculation": "2458463.5",
        "eccentricity": ".4079921314829374",
        "semi_major_axis": "1.621057770783135",
        "inclination": "3.151295084707805",
        "ascending_node_longitude": "56.91992223097792",
        "orbital_period": "753.8694868674635",
        "perihelion_distance": ".959678955624345",
        "perihelion_argument": "329.7337724117066",
        "aphelion_distance": "2.282436585941925",
        "perihelion_time": "2458420.747645423609",
        "mean_anomaly": "20.41579864368034",
        "mean_motion": ".4775362397222093",
        "equinox": "J2000",
        "orbit_class": {
            "orbit_class_type": "APO",
            "orbit_class_description": "Near-Earth asteroid orbits which cross the Earth’s orbit similar to that of 1862 Apollo",
            "orbit_class_range": "a (semi-major axis) > 1.0 AU; q (perihelion) < 1.017 AU"
        }
    },
    "is_sentry_object": false
}